IRIDIUM 57              
1 25273U 98019B   24363.35675428  .00000887  00000+0  30076-3 0  9995
2 25273  86.3969 216.7667 0001926  85.6950 274.4467 14.35656217400275
IRIDIUM 63              
1 25286U 98021B   24363.37092291  .00001340  00000+0  45237-3 0  9995
2 25286  86.4007 153.7527 0002152  92.2922 267.8522 14.36275674399329
IRIDIUM 69              
1 25319U 98026A   24363.41784566  .00001348  00000+0  41698-3 0  9990
2 25319  86.4002 167.5201 0001590 170.7037 189.4192 14.40616575398478
IRIDIUM 71              
1 25320U 98026B   24363.51874668  .00001388  00000+0  42717-3 0  9993
2 25320  86.4000 162.2054 0000731   0.2385 359.8815 14.40857838399010
IRIDIUM 73              
1 25344U 98032C   24363.58060294  .00001970  00000+0  49032-3 0  9999
2 25344  86.4428 119.2780 0001798 111.3078 248.8319 14.51284456405819
IRIDIUM 82              
1 25467U 98051A   24363.04718914  .00033148  00000+0  12863-2 0  9999
2 25467  86.3727 193.0953 0103583 221.6234 137.7094 15.21011187397848
